{"type": "FeatureCollection", "features": [ {"type": "Feature", "properties": {"norad_id": 30676, "name": "FENGYUN 1C DEB", "group": "fengyun-1c-debris", "lat": 65.00989786020598, "lon": 14.841577802176472, "alt_km": 890.5308535048443, "timestamp": "2025-12-17T09:00:17.426382+00:00", "meta": {"OBJECT_NAME": "FENGYUN 1C DEB", "OBJECT_ID": "1999-025AQJ", "EPOCH": "2025-12-16T11:31:17.870880", "MEAN_MOTION": 13.73921164, "ECCENTRICITY": 0.04722275, "INCLINATION": 98.2657, "RA_OF_ASC_NODE": 175.8918, "ARG_OF_PERICENTER": 38.1789, "MEAN_ANOMALY": 325.184, "EPHEMERIS_TYPE": 0, "CLASSIFICATION_TYPE": "U", "NORAD_CAT_ID": 30676, "ELEMENT_SET_NO": 999, "REV_AT_EPOCH": 93975, "BSTAR": 0.00062195745, "MEAN_MOTION_DOT": 1.277e-05, "MEAN_MOTION_DDOT": 0}, "tle": {"line1": "1 30676U 99025AQJ 25350.48006795  .00001277  00000+0  62196-3 0  9994", "line2": "2 30676  98.2657 175.8918 0472227  38.1789 325.1840 13.73921164939753"}}, "geometry": {"type": "Point", "coordinates": [14.841577802176472, 65.00989786020598]}}, {"type": "Feature", "properties": {"norad_id": 30677, "name": "FENGYUN 1C DEB", "group": "fengyun-1c-debris", "lat": 30.752192288147, "lon": -138.7480883524882, "alt_km": 727.181574658799, "timestamp": "2025-12-17T09:00:17.426392+00:00", "meta": {"OBJECT_NAME": "FENGYUN 1C DEB", "OBJECT_ID": "1999-025AQK", "EPOCH": "2025-12-16T02:23:25.584288", "MEAN_MOTION": 14.38171203, "ECCENTRICITY": 0.00663532, "INCLINATION": 98.2548, "RA_OF_ASC_NODE": 35.0707, "ARG_OF_PERICENTER": 194.0707, "MEAN_ANOMALY": 194.7311, "EPHEMERIS_TYPE": 0, "CLASSIFICATION_TYPE": "U", "NORAD_CAT_ID": 30677, "ELEMENT_SET_NO": 999, "REV_AT_EPOCH": 98028, "BSTAR": 0.00082148135, "MEAN_MOTION_DOT": 2.516e-05, "MEAN_MOTION_DDOT": 0}, "tle": {"line1": "1 30677U 99025AQK 25350.09960167  .00002516  00000+0  82148-3 0  9990", "line2": "2 30677  98.2548  35.0707 0066353 194.0707 194.7311 14.38171203980287"}}, "geometry": {"type": "Point", "coordinates": [-138.7480883524882, 30.752192288147]}}, {"type": "Feature", "properties": {"norad_id": 30678, "name": "FENGYUN 1C DEB", "group": "fengyun-1c-debris", "lat": 54.783092250372746, "lon": 145.3820835896451, "alt_km": 808.1575814158005, "timestamp": "2025-12-17T09:00:17.426402+00:00", "meta": {"OBJECT_NAME": "FENGYUN 1C DEB", "OBJECT_ID": "1999-025AQL", "EPOCH": "2025-12-16T20:52:40.295712", "MEAN_MOTION": 14.24222017, "ECCENTRICITY": 0.0071268, "INCLINATION": 99.0791, "RA_OF_ASC_NODE": 311.7672, "ARG_OF_PERICENTER": 218.5523, "MEAN_ANOMALY": 197.0926, "EPHEMERIS_TYPE": 0, "CLASSIFICATION_TYPE": "U", "NORAD_CAT_ID": 30678, "ELEMENT_SET_NO": 999, "REV_AT_EPOCH": 95934, "BSTAR": 0.0022673927, "MEAN_MOTION_DOT": 5.324e-05, "MEAN_MOTION_DDOT": 0}, "tle": {"line1": "1 30678U 99025AQL 25350.86991083  .00005324  00000+0  22674-2 0  9994", "line2": "2 30678  99.0791 311.7672 0071268 218.5523 197.0926 14.24222017959347"}}, "geometry": {"type": "Point", "coordinates": [145.3820835896451, 54.783092250372746]}}, {"type": "Feature", "properties": {"norad_id": 30679, "name": "FENGYUN 1C DEB", "group": "fengyun-1c-debris", "lat": -45.71785882193603, "lon": -146.67518976774036, "alt_km": 1089.552293563288, "timestamp": "2025-12-17T09:00:17.426412+00:00", "meta": {"OBJECT_NAME": "FENGYUN 1C DEB", "OBJECT_ID": "1999-025AQM", "EPOCH": "2025-12-15T02:06:55.956096", "MEAN_MOTION": 13.79718077, "ECCENTRICITY": 0.01715425, "INCLINATION": 99.3813, "RA_OF_ASC_NODE": 40.8174, "ARG_OF_PERICENTER": 72.6179, "MEAN_ANOMALY": 319.3934, "EPHEMERIS_TYPE": 0, "CLASSIFICATION_TYPE": "U", "NORAD_CAT_ID": 30679, "ELEMENT_SET_NO": 999, "REV_AT_EPOCH": 94552, "BSTAR": 0.0006439514, "MEAN_MOTION_DOT": 7e-06, "MEAN_MOTION_DDOT": 0}, "tle": {"line1": "1 30679U 99025AQM 25349.08814764  .00000700  00000+0  64395-3 0  9997", "line2": "2 30679  99.3813  40.8174 0171542  72.6179 319.3934 13.79718077945523"}}, "geometry": {"type": "Point", "coordinates": [-146.67518976774036, -45.71785882193603]}}, {"type": "Feature", "properties": {"norad_id": 30680, "name": "FENGYUN 1C DEB", "group": "fengyun-1c-debris", "lat": 50.51879477712636, "lon": 21.998188087246845, "alt_km": 1100.7454987945575, "timestamp": "2025-12-17T09:00:17.426422+00:00", "meta": {"OBJECT_NAME": "FENGYUN 1C DEB", "OBJECT_ID": "1999-025AQN", "EPOCH": "2025-12-15T08:55:54.957504", "MEAN_MOTION": 13.56131738, "ECCENTRICITY": 0.03393371, "INCLINATION": 99.6303, "RA_OF_ASC_NODE": 31.9316, "ARG_OF_PERICENTER": 161.2989, "MEAN_ANOMALY": 200.0977, "EPHEMERIS_TYPE": 0, "CLASSIFICATION_TYPE": "U", "NORAD_CAT_ID": 30680, "ELEMENT_SET_NO": 999, "REV_AT_EPOCH": 92289, "BSTAR": 0.0030799757, "MEAN_MOTION_DOT": 3.089e-05, "MEAN_MOTION_DDOT": 0}, "tle": {"line1": "1 30680U 99025AQN 25349.37216386  .00003089  00000+0  30800-2 0  9993", "line2": "2 30680  99.6303  31.9316 0339337 161.2989 200.0977 13.56131738922899"}}, "geometry": {"type": "Point", "coordinates": [21.998188087246845, 50.51879477712636]}}, {"type": "Feature", "properties": {"norad_id": 30683, "name": "FENGYUN 1C DEB", "group": "fengyun-1c-debris", "lat": 22.765450799996906, "lon": -0.9871793244400904, "alt_km": 991.3117550994075, "timestamp": "2025-12-17T09:00:17.426432+00:00", "meta": {"OBJECT_NAME": "FENGYUN 1C DEB", "OBJECT_ID": "1999-025AQR", "EPOCH": "2025-12-16T00:26:07.575072", "MEAN_MOTION": 14.00399159, "ECCENTRICITY": 0.01383388, "INCLINATION": 99.4274, "RA_OF_ASC_NODE": 1.6119, "ARG_OF_PERICENTER": 215.6297, "MEAN_ANOMALY": 169.4922, "EPHEMERIS_TYPE": 0, "CLASSIFICATION_TYPE": "U", "NORAD_CAT_ID": 30683, "ELEMENT_SET_NO": 999, "REV_AT_EPOCH": 95597, "BSTAR": 0.0009530818, "MEAN_MOTION_DOT": 1.487e-05, "MEAN_MOTION_DDOT": 0}, "tle": {"line1": "1 30683U 99025AQR 25350.01814323  .00001487  00000+0  95308-3 0  9999", "line2": "2 30683  99.4274   1.6119 0138338 215.6297 169.4922 14.00399159955972"}}, "geometry": {"type": "Point", "coordinates": [-0.9871793244400904, 22.765450799996906]}}, {"type": "Feature", "properties": {"norad_id": 30684, "name": "FENGYUN 1C DEB", "group": "fengyun-1c-debris", "lat": -0.10034570244647083, "lon": 32.715510024503345, "alt_km": 1048.0163815755113, "timestamp": "2025-12-17T09:00:17.426442+00:00", "meta": {"OBJECT_NAME": "FENGYUN 1C DEB", "OBJECT_ID": "1999-025AQS", "EPOCH": "2025-12-16T01:22:56.358336", "MEAN_MOTION": 13.66812198, "ECCENTRICITY": 0.02352688, "INCLINATION": 99.5315, "RA_OF_ASC_NODE": 31.4001, "ARG_OF_PERICENTER": 260.7494, "MEAN_ANOMALY": 96.6974, "EPHEMERIS_TYPE": 0, "CLASSIFICATION_TYPE": "U", "NORAD_CAT_ID": 30684, "ELEMENT_SET_NO": 999, "REV_AT_EPOCH": 93674, "BSTAR": 0.0010088231, "MEAN_MOTION_DOT": 9.72e-06, "MEAN_MOTION_DDOT": 0}, "tle": {"line1": "1 30684U 99025AQS 25350.05759674  .00000972  00000+0  10088-2 0  9990", "line2": "2 30684  99.5315  31.4001 0235268 260.7494  96.6974 13.66812198936747"}}, "geometry": {"type": "Point", "coordinates": [32.715510024503345, -0.10034570244647083]}}, {"type": "Feature", "properties": {"norad_id": 30686, "name": "FENGYUN 1C DEB", "group": "fengyun-1c-debris", "lat": -74.24475594644393, "lon": -139.878121860515, "alt_km": 756.9622837893548, "timestamp": "2025-12-17T09:00:17.426452+00:00", "meta": {"OBJECT_NAME": "FENGYUN 1C DEB", "OBJECT_ID": "1999-025AQU", "EPOCH": "2025-12-17T00:16:10.365312", "MEAN_MOTION": 14.73924913, "ECCENTRICITY": 0.01441244, "INCLINATION": 99.0328, "RA_OF_ASC_NODE": 185.3942, "ARG_OF_PERICENTER": 107.3751, "MEAN_ANOMALY": 45.3742, "EPHEMERIS_TYPE": 0, "CLASSIFICATION_TYPE": "U", "NORAD_CAT_ID": 30686, "ELEMENT_SET_NO": 999, "REV_AT_EPOCH": 99664, "BSTAR": 0.0005332843, "MEAN_MOTION_DOT": 4.065e-05, "MEAN_MOTION_DDOT": 0}, "tle": {"line1": "1 30686U 99025AQU 25351.01123108  .00004065  00000+0  53328-3 0  9998", "line2": "2 30686  99.0328 185.3942 0144124 107.3751  45.3742 14.73924913996640"}}, "geometry": {"type": "Point", "coordinates": [-139.878121860515, -74.24475594644393]}}, {"type": "Feature", "properties": {"norad_id": 30688, "name": "FENGYUN 1C DEB", "group": "fengyun-1c-debris", "lat": -81.0932747608077, "lon": 142.533565034755, "alt_km": 780.2870365098324, "timestamp": "2025-12-17T09:00:17.426462+00:00", "meta": {"OBJECT_NAME": "FENGYUN 1C DEB", "OBJECT_ID": "1999-025AQW", "EPOCH": "2025-12-16T11:41:40.901280", "MEAN_MOTION": 14.32729879, "ECCENTRICITY": 0.00153966, "INCLINATION": 98.702, "RA_OF_ASC_NODE": 63.8783, "ARG_OF_PERICENTER": 303.5403, "MEAN_ANOMALY": 71.2805, "EPHEMERIS_TYPE": 0, "CLASSIFICATION_TYPE": "U", "NORAD_CAT_ID": 30688, "ELEMENT_SET_NO": 999, "REV_AT_EPOCH": 97314, "BSTAR": 0.0011790446, "MEAN_MOTION_DOT": 3.17e-05, "MEAN_MOTION_DDOT": 0}, "tle": {"line1": "1 30688U 99025AQW 25350.48727895  .00003170  00000+0  11790-2 0  9995", "line2": "2 30688  98.7020  63.8783 0015396 303.5403  71.2805 14.32729879973149"}}, "geometry": {"type": "Point", "coordinates": [142.533565034755, -81.0932747608077]}}, {"type": "Feature", "properties": {"norad_id": 30689, "name": "FENGYUN 1C DEB", "group": "fengyun-1c-debris", "lat": -78.32648770572632, "lon": 25.36112888778087, "alt_km": 940.7709045218498, "timestamp": "2025-12-17T09:00:17.426473+00:00", "meta": {"OBJECT_NAME": "FENGYUN 1C DEB", "OBJECT_ID": "1999-025AQX", "EPOCH": "2025-12-16T21:46:01.685280", "MEAN_MOTION": 14.11773376, "ECCENTRICITY": 0.01118064, "INCLINATION": 98.7082, "RA_OF_ASC_NODE": 337.0203, "ARG_OF_PERICENTER": 91.5685, "MEAN_ANOMALY": 327.9839, "EPHEMERIS_TYPE": 0, "CLASSIFICATION_TYPE": "U", "NORAD_CAT_ID": 30689, "ELEMENT_SET_NO": 999, "REV_AT_EPOCH": 96949, "BSTAR": 0.00037410467, "MEAN_MOTION_DOT": 6.82e-06, "MEAN_MOTION_DDOT": 0}, "tle": {"line1": "1 30689U 99025AQX 25350.90696395  .00000682  00000+0  37410-3 0  9996", "line2": "2 30689  98.7082 337.0203 0111806  91.5685 327.9839 14.11773376969499"}}, "geometry": {"type": "Point", "coordinates": [25.36112888778087, -78.32648770572632]}}]}